{
    "links": {
        "self": "http://www.neowsapp.com/rest/v1/neo/3696303?api_key=iIulBulltgU6a56xZRHN4H3l9WmuAYTsLGpBGhQ2"
    },
    "id": "3696303",
    "neo_reference_id": "3696303",
    "name": "(2014 WZ4)",
    "designation": "2014 WZ4",
    "nasa_jpl_url": "http://ssd.jpl.nasa.gov/sbdb.cgi?sstr=3696303",
    "absolute_magnitude_h": 23.5,
    "estimated_diameter": {
        "kilometers": {
            "estimated_diameter_min": 0.0530340723,
            "estimated_diameter_max": 0.1185877909
        },
        "meters": {
            "estimated_diameter_min": 53.0340723319,
            "estimated_diameter_max": 118.5877908577
        },
        "miles": {
            "estimated_diameter_min": 0.0329538346,
            "estimated_diameter_max": 0.0736870142
        },
        "feet": {
            "estimated_diameter_min": 173.9963058693,
            "estimated_diameter_max": 389.0675677576
        }
    },
    "is_potentially_hazardous_asteroid": false,
    "close_approach_data": [
        {
            "close_approach_date": "2014-11-13",
            "close_approach_date_full": "2014-Nov-13 02:27",
            "epoch_date_close_approach": 1415845620000,
            "relative_velocity": {
                "kilometers_per_second": "10.4094729364",
                "kilometers_per_hour": "37474.1025709997",
                "miles_per_hour": "23284.9500114081"
            },
            "miss_distance": {
                "astronomical": "0.0644473445",
                "lunar": "25.0700170105",
                "kilometers": "9641185.464356215",
                "miles": "5990754.852557167"
            },
            "orbiting_body": "Earth"
        }
    ],
    "orbital_data": {
        "orbit_id": "8",
        "orbit_determination_date": "2018-02-10 07:05:56",
        "first_observation_date": "2014-11-17",
        "last_observation_date": "2014-12-08",
        "data_arc_in_days": 21,
        "observations_used": 49,
        "orbit_uncertainty": "7",
        "minimum_orbit_intersection": ".0597427",
        "jupiter_tisserand_invariant": "4.506",
        "epoch_osculation": "2459000.5",
        "eccentricity": ".2866580628879931",
        "semi_major_axis": "1.470645077790311",
        "inclination": "18.16868336329095",
        "ascending_node_longitude": "49.43704702340474",
        "orbital_period": "651.4187238775469",
        "perihelion_distance": "1.049072808595178",
        "perihelion_argument": "1.12067866551791",
        "aphelion_distance": "1.892217346985443",
        "perihelion_time": "2458930.438776370017",
        "mean_anomaly": "38.71862994152275",
        "mean_motion": ".5526399331249073",
        "equinox": "J2000",
        "orbit_class": {
            "orbit_class_type": "AMO",
            "orbit_class_description": "Near-Earth asteroid orbits similar to that of 1221 Amor",
            "orbit_class_range": "1.017 AU < q (perihelion) < 1.3 AU"
        }
    },
    "is_sentry_object": false
}